{
    "links": {
        "self": "http://www.neowsapp.com/rest/v1/neo/3373617?api_key=iIulBulltgU6a56xZRHN4H3l9WmuAYTsLGpBGhQ2"
    },
    "id": "3373617",
    "neo_reference_id": "3373617",
    "name": "(2007 GU1)",
    "designation": "2007 GU1",
    "nasa_jpl_url": "http://ssd.jpl.nasa.gov/sbdb.cgi?sstr=3373617",
    "absolute_magnitude_h": 25.0,
    "estimated_diameter": {
        "kilometers": {
            "estimated_diameter_min": 0.02658,
            "estimated_diameter_max": 0.0594346868
        },
        "meters": {
            "estimated_diameter_min": 26.58,
            "estimated_diameter_max": 59.4346868419
        },
        "miles": {
            "estimated_diameter_min": 0.0165160412,
            "estimated_diameter_max": 0.0369309908
        },
        "feet": {
            "estimated_diameter_min": 87.2047272,
            "estimated_diameter_max": 194.9956979785
        }
    },
    "is_potentially_hazardous_asteroid": false,
    "close_approach_data": [
        {
            "close_approach_date": "1905-12-26",
            "close_approach_date_full": "1905-Dec-26 00:44",
            "epoch_date_close_approach": -2020202160000,
            "relative_velocity": {
                "kilometers_per_second": "11.2521273228",
                "kilometers_per_hour": "40507.6583622226",
                "miles_per_hour": "25169.8836084599"
            },
            "miss_distance": {
                "astronomical": "0.1279523274",
                "lunar": "49.7734553586",
                "kilometers": "19141395.640582638",
                "miles": "11893911.7230428844"
            },
            "orbiting_body": "Venus"
        },
        {
            "close_approach_date": "2007-04-16",
            "close_approach_date_full": "2007-Apr-16 00:38",
            "epoch_date_close_approach": 1176683880000,
            "relative_velocity": {
                "kilometers_per_second": "16.9363590325",
                "kilometers_per_hour": "60970.892517112",
                "miles_per_hour": "37884.9415198688"
            },
            "miss_distance": {
                "astronomical": "0.0054062786",
                "lunar": "2.1030423754",
                "kilometers": "808767.763186582",
                "miles": "502544.9847235516"
            },
            "orbiting_body": "Earth"
        },
        {
            "close_approach_date": "2007-04-16",
            "close_approach_date_full": "2007-Apr-16 05:18",
            "epoch_date_close_approach": 1176700680000,
            "relative_velocity": {
                "kilometers_per_second": "16.929991406",
                "kilometers_per_hour": "60947.9690615176",
                "miles_per_hour": "37870.6977760302"
            },
            "miss_distance": {
                "astronomical": "0.0052032686",
                "lunar": "2.0240714854",
                "kilometers": "778397.899597882",
                "miles": "483674.0265474916"
            },
            "orbiting_body": "Moon"
        }
    ],
    "orbital_data": {
        "orbit_id": "13",
        "orbit_determination_date": "2017-04-06 09:06:37",
        "first_observation_date": "2007-04-11",
        "last_observation_date": "2007-04-15",
        "data_arc_in_days": 4,
        "observations_used": 133,
        "orbit_uncertainty": "7",
        "minimum_orbit_intersection": ".000883632",
        "jupiter_tisserand_invariant": "3.366",
        "epoch_osculation": "2459000.5",
        "eccentricity": ".6405960269526655",
        "semi_major_axis": "2.18309615434564",
        "inclination": "9.114151067678405",
        "ascending_node_longitude": "25.80817701196299",
        "orbital_period": "1178.169359156318",
        "perihelion_distance": ".7846134314161801",
        "perihelion_argument": "243.4724239147183",
        "aphelion_distance": "3.5815788772751",
        "perihelion_time": "2458963.233240521281",
        "mean_anomaly": "11.38718581337581",
        "mean_motion": ".305558786775608",
        "equinox": "J2000",
        "orbit_class": {
            "orbit_class_type": "APO",
            "orbit_class_description": "Near-Earth asteroid orbits which cross the Earth’s orbit similar to that of 1862 Apollo",
            "orbit_class_range": "a (semi-major axis) > 1.0 AU; q (perihelion) < 1.017 AU"
        }
    },
    "is_sentry_object": false
}